STARLINK-1434           
1 45712U 20035BH  26068.24137979  .00054112  00000+0  20295-2 0  9995
2 45712  53.0547  22.1128 0005343  88.0400 272.1210 15.26724568319325
STARLINK-31162          
1 58791U 24012E   26068.33510763 -.00000616  00000+0 -12838-4 0  9999
2 58791  43.0024 167.0956 0001906 282.4896  77.5743 15.27589946121186
